{
  "type": "FeatureCollection",
  "features": [
    {
      "type": "Feature",
      "properties": {
        "norad_id": 41866,
        "name": "GOES 16",
        "group": "weather",
        "lat": 0.012260839367546943,
        "lon": 88.3892551341648,
        "alt_km": 35798.76985601843,
        "timestamp": "2025-12-19T06:59:43.546489+00:00",
        "meta_object_name": "GOES 16",
        "meta_object_id": "2016-071A",
        "meta_epoch": "2025-12-18T23:04:13.447200",
        "meta_mean_motion": 1.00272238,
        "meta_eccentricity": 0.00030276,
        "meta_inclination": 0.0716,
        "meta_ra_of_asc_node": 103.6373,
        "meta_arg_of_pericenter": 161.62,
        "meta_mean_anomaly": 63.9433,
        "meta_ephemeris_type": 0,
        "meta_classification_type": "U",
        "meta_norad_cat_id": 41866,
        "meta_element_set_no": 999,
        "meta_rev_at_epoch": 3329,
        "meta_bstar": 0,
        "meta_mean_motion_dot": -6.6e-07,
        "meta_mean_motion_ddot": 0,
        "tle_line1": "1 41866U 16071A   25352.96126675 -.00000066  00000+0  00000+0 0  9990",
        "tle_line2": "2 41866   0.0716 103.6373 0003027 161.6200  63.9433  1.00272238 33292"
      },
      "geometry": {
        "type": "Point",
        "coordinates": [
          88.3892551341648,
          0.012260839367546943
        ]
      }
    },
    {
      "type": "Feature",
      "properties": {
        "norad_id": 41882,
        "name": "FENGYUN 4A",
        "group": "weather",
        "lat": -1.535868861855057,
        "lon": -43.144168046707804,
        "alt_km": 35788.11721518811,
        "timestamp": "2025-12-19T06:59:43.546501+00:00",
        "meta_object_name": "FENGYUN 4A",
        "meta_object_id": "2016-077A",
        "meta_epoch": "2025-12-18T22:26:39.545088",
        "meta_mean_motion": 1.00266947,
        "meta_eccentricity": 0.00045017,
        "meta_inclination": 1.8645,
        "meta_ra_of_asc_node": 82.3322,
        "meta_arg_of_pericenter": 142.9261,
        "meta_mean_anomaly": 322.9561,
        "meta_ephemeris_type": 0,
        "meta_classification_type": "U",
        "meta_norad_cat_id": 41882,
        "meta_element_set_no": 999,
        "meta_rev_at_epoch": 3312,
        "meta_bstar": 0,
        "meta_mean_motion_dot": -3.34e-06,
        "meta_mean_motion_ddot": 0,
        "tle_line1": "1 41882U 16077A   25352.93517992 -.00000334  00000+0  00000+0 0  9995",
        "tle_line2": "2 41882   1.8645  82.3322 0004501 142.9261 322.9561  1.00266947 33126"
      },
      "geometry": {
        "type": "Point",
        "coordinates": [
          -43.144168046707804,
          -1.535868861855057
        ]
      }
    },
    {
      "type": "Feature",
      "properties": {
        "norad_id": 41884,
        "name": "CYGFM05",
        "group": "weather",
        "lat": -16.498589335639412,
        "lon": -150.59094871171683,
        "alt_km": 417.56375612333613,
        "timestamp": "2025-12-19T06:59:43.546512+00:00",
        "meta_object_name": "CYGFM05",
        "meta_object_id": "2016-078A",
        "meta_epoch": "2025-12-18T09:58:14.123136",
        "meta_mean_motion": 15.47842846,
        "meta_eccentricity": 0.00106743,
        "meta_inclination": 34.9607,
        "meta_ra_of_asc_node": 10.0509,
        "meta_arg_of_pericenter": 233.6199,
        "meta_mean_anomaly": 126.3539,
        "meta_ephemeris_type": 0,
        "meta_classification_type": "U",
        "meta_norad_cat_id": 41884,
        "meta_element_set_no": 999,
        "meta_rev_at_epoch": 50064,
        "meta_bstar": 0.00032790971,
        "meta_mean_motion_dot": 0.000176,
        "meta_mean_motion_ddot": 0,
        "tle_line1": "1 41884U 16078A   25352.41544124  .00017600  00000+0  32791-3 0  9997",
        "tle_line2": "2 41884  34.9607  10.0509 0010674 233.6199 126.3539 15.47842846500645"
      },
      "geometry": {
        "type": "Point",
        "coordinates": [
          -150.59094871171683,
          -16.498589335639412
        ]
      }
    },
    {
      "type": "Feature",
      "properties": {
        "norad_id": 41885,
        "name": "CYGFM04",
        "group": "weather",
        "lat": 14.566310878491864,
        "lon": 137.05741965661744,
        "alt_km": 414.3065410673544,
        "timestamp": "2025-12-19T06:59:43.546523+00:00",
        "meta_object_name": "CYGFM04",
        "meta_object_id": "2016-078B",
        "meta_epoch": "2025-12-18T08:42:07.613568",
        "meta_mean_motion": 15.50592103,
        "meta_eccentricity": 0.00097951,
        "meta_inclination": 34.9357,
        "meta_ra_of_asc_node": 345.0092,
        "meta_arg_of_pericenter": 258.3905,
        "meta_mean_anomaly": 101.5718,
        "meta_ephemeris_type": 0,
        "meta_classification_type": "U",
        "meta_norad_cat_id": 41885,
        "meta_element_set_no": 999,
        "meta_rev_at_epoch": 50081,
        "meta_bstar": 0.00035246337,
        "meta_mean_motion_dot": 0.00020857,
        "meta_mean_motion_ddot": 0,
        "tle_line1": "1 41885U 16078B   25352.36258812  .00020857  00000+0  35246-3 0  9994",
        "tle_line2": "2 41885  34.9357 345.0092 0009795 258.3905 101.5718 15.50592103500812"
      },
      "geometry": {
        "type": "Point",
        "coordinates": [
          137.05741965661744,
          14.566310878491864
        ]
      }
    },
    {
      "type": "Feature",
      "properties": {
        "norad_id": 41886,
        "name": "CYGFM02",
        "group": "weather",
        "lat": -11.202900165290634,
        "lon": 173.6310909684417,
        "alt_km": 408.0299707219683,
        "timestamp": "2025-12-19T06:59:43.546534+00:00",
        "meta_object_name": "CYGFM02",
        "meta_object_id": "2016-078C",
        "meta_epoch": "2025-12-18T10:04:08.517792",
        "meta_mean_motion": 15.51990964,
        "meta_eccentricity": 0.00114697,
        "meta_inclination": 34.9446,
        "meta_ra_of_asc_node": 342.8876,
        "meta_arg_of_pericenter": 258.9648,
        "meta_mean_anomaly": 100.9785,
        "meta_ephemeris_type": 0,
        "meta_classification_type": "U",
        "meta_norad_cat_id": 41886,
        "meta_element_set_no": 999,
        "meta_rev_at_epoch": 50095,
        "meta_bstar": 0.00035378493,
        "meta_mean_motion_dot": 0.00022034,
        "meta_mean_motion_ddot": 0,
        "tle_line1": "1 41886U 16078C   25352.41954303  .00022034  00000+0  35378-3 0  9994",
        "tle_line2": "2 41886  34.9446 342.8876 0011469 258.9648 100.9785 15.51990964500958"
      },
      "geometry": {
        "type": "Point",
        "coordinates": [
          173.6310909684417,
          -11.202900165290634
        ]
      }
    },
    {
      "type": "Feature",
      "properties": {
        "norad_id": 41887,
        "name": "CYGFM01",
        "group": "weather",
        "lat": -34.89617408830224,
        "lon": -85.99941946081958,
        "alt_km": 417.5088850070679,
        "timestamp": "2025-12-19T06:59:43.546544+00:00",
        "meta_object_name": "CYGFM01",
        "meta_object_id": "2016-078D",
        "meta_epoch": "2025-12-18T11:16:35.201568",
        "meta_mean_motion": 15.48428665,
        "meta_eccentricity": 0.00103113,
        "meta_inclination": 34.9437,
        "meta_ra_of_asc_node": 12.0044,
        "meta_arg_of_pericenter": 226.5679,
        "meta_mean_anomaly": 133.4185,
        "meta_ephemeris_type": 0,
        "meta_classification_type": "U",
        "meta_norad_cat_id": 41887,
        "meta_element_set_no": 999,
        "meta_rev_at_epoch": 50059,
        "meta_bstar": 0.00031117974,
        "meta_mean_motion_dot": 0.00017044,
        "meta_mean_motion_ddot": 0,
        "tle_line1": "1 41887U 16078D   25352.46985187  .00017044  00000+0  31118-3 0  9997",
        "tle_line2": "2 41887  34.9437  12.0044 0010311 226.5679 133.4185 15.48428665500597"
      },
      "geometry": {
        "type": "Point",
        "coordinates": [
          -85.99941946081958,
          -34.89617408830224
        ]
      }
    },
    {
      "type": "Feature",
      "properties": {
        "norad_id": 41888,
        "name": "CYGFM08",
        "group": "weather",
        "lat": -8.536662819677982,
        "lon": -22.867972586368925,
        "alt_km": 417.2672839301322,
        "timestamp": "2025-12-19T06:59:43.546555+00:00",
        "meta_object_name": "CYGFM08",
        "meta_object_id": "2016-078E",
        "meta_epoch": "2025-12-18T09:24:52.116768",
        "meta_mean_motion": 15.49646932,
        "meta_eccentricity": 0.00120006,
        "meta_inclination": 34.9468,
        "meta_ra_of_asc_node": 355.4372,
        "meta_arg_of_pericenter": 248.6935,
        "meta_mean_anomaly": 111.2506,
        "meta_ephemeris_type": 0,
        "meta_classification_type": "U",
        "meta_norad_cat_id": 41888,
        "meta_element_set_no": 999,
        "meta_rev_at_epoch": 50081,
        "meta_bstar": 0.00034719619,
        "meta_mean_motion_dot": 0.00019881,
        "meta_mean_motion_ddot": 0,
        "tle_line1": "1 41888U 16078E   25352.39226987  .00019881  00000+0  34720-3 0  9999",
        "tle_line2": "2 41888  34.9468 355.4372 0012000 248.6935 111.2506 15.49646932500813"
      },
      "geometry": {
        "type": "Point",
        "coordinates": [
          -22.867972586368925,
          -8.536662819677982
        ]
      }
    }
  ]
}